satname,norad_id,inclination_deg,eccentricity,mean_motion_rev_per_day,perigee_km,apogee_km,l1,l2
STARLINK-1008,44714,53.1545,0.0003069,15.48754048,418.28337023420863,422.4562937276787,1 44714U 19074B   26157.60381343  .00071441  00000+0  13059-2 0  9996,2 44714  53.1545 119.3531 0003069  85.4485 274.6874 15.48754048362577
STARLINK-1012,44718,53.1557,0.0002597,15.49065766,417.69242515232236,421.2230958709324,1 44718U 19074F   26157.92460181  .00042605  00000+0  77645-3 0  9995,2 44718  53.1557 118.1078 0002597  84.1833 275.9472 15.49065766362611
STARLINK-1017,44723,53.0475,0.0005188,15.31238234,468.5629298576123,475.67075324360576,1 44723U 19074L   26157.17801880  .00057912  00000+0  18898-2 0  9994,2 44723  53.0475 120.8383 0005188  32.7405 327.3915 15.31238234362490
STARLINK-1020,44725,53.157,0.0004436,15.54207919,401.44733058821475,407.46484717667136,1 44725U 19074N   26157.69279111  .00081704  00000+0  12266-2 0  9998,2 44725  53.1570 143.3143 0004436  55.5215 304.6214 15.54207919362222
STARLINK-1036,44741,53.0414,0.0002981,15.69039956,359.63571321235213,363.6539711466594,1 44741U 19074AE  26157.58052351  .00068347  00000+0  58002-3 0  9996,2 44741  53.0414 113.1067 0002981  12.7450 347.3640 15.69039956362637
STARLINK-1039,44744,53.0588,0.0004198,15.28482258,477.46954777195424,483.2279323993298,1 44744U 19074AH  26157.72771285  .00045214  00000+0  16118-2 0  9998,2 44744  53.0588 163.6396 0004198  35.0058 325.1216 15.28482258361949
STARLINK-1042,44747,53.0428,0.0003099,15.54071107,402.7521025815995,406.95620049732406,1 44747U 19074AL  26156.87429366  .00032454  00000+0  49707-3 0  9999,2 44747  53.0428  30.2759 0003099  94.3216 265.8148 15.54071107363762
STARLINK-1043,44748,53.0483,0.000113,15.62436706,379.85709270755706,381.3845719776664,1 44748U 19074AM  26157.61001740  .00047123  00000+0  52390-3 0  9996,2 44748  53.0483 123.1560 0001130  79.5099 280.6042 15.62436706362502
STARLINK-1046,44751,53.0466,0.000733,15.54667037,398.15002257366814,408.0913463390816,1 44751U 19074AQ  26157.57277866  .00042898  00000+0  63929-3 0  9993,2 44751  53.0466 144.8577 0007330  51.5053 308.6613 15.54667037362197
STARLINK-1047,44752,53.0685,0.0003791,15.34521738,459.74820776310116,464.9346585111052,1 44752U 19074AR  26157.52032376  .00011159  00000+0  33957-3 0  9998,2 44752  53.0685  90.4113 0003791 106.4565 253.6853 15.34521738362974
STARLINK-1048,44753,53.0441,0.0006808,15.67046933,362.7658858860277,371.9505521762612,1 44753U 19074AS  26156.55160353  .00065349  00000+0  60141-3 0  9993,2 44753  53.0441 100.1600 0006808  50.1100 310.0513 15.67046933362726
STARLINK-1063,44768,53.1556,0.0002609,15.48749809,418.608503525139,422.15597086310754,1 44768U 19074BH  26157.93915439  .00062479  00000+0  11446-2 0  9999,2 44768  53.1556 158.7756 0002609  46.5337 313.5889 15.48749809362069
STARLINK-1067,44771,53.042,0.0001995,15.76571298,338.8232835004401,341.5038854336426,1 44771U 19074BL  26158.00004630  .00032936  00000+0  20584-3 0  9993,2 44771  53.0420 124.8903 0001995  95.8294 175.1041 15.76571298  5945
STARLINK-1068,44772,53.0416,0.0002184,15.7519435,342.6100609741434,345.54632457034677,1 44772U 19074BM  26157.96029344  .00080641  00000+0  52615-3 0  9993,2 44772  53.0416  98.7786 0002184 118.9942 241.1296 15.75194350362869
STARLINK-1114,44927,53.0404,0.0003948,15.65159649,370.11438837126934,375.4449121583193,1 44927U 20001P   26157.77879727  .00052052  00000+0  51901-3 0  9996,2 44927  53.0404 256.6422 0003948 356.3620   3.7365 15.65159649353983
STARLINK-1123,44930,53.1443,0.0005472,15.57904257,390.0178685896117,397.42899264487824,1 44930U 20001S   26157.81302887  .00077832  00000+0  10199-2 0  9999,2 44930  53.1443 283.3991 0005472 305.3334  54.7166 15.57904257353629
STARLINK-1094,44941,53.1521,0.0006242,15.54352889,399.80092240257727,408.26778512061355,1 44941U 20001AD  26157.83345869  .00037163  00000+0  56178-3 0  9991,2 44941  53.1521 258.2885 0006242 332.8639  27.2045 15.54352889353985
STARLINK-1122,44949,53.1545,0.0005552,15.54102805,400.9960536436529,408.5277846034469,1 44949U 20001AM  26157.58744799  .00087113  00000+0  13111-2 0  9995,2 44949  53.1545 260.0827 0005552 332.0157  28.0554 15.54102805353936
STARLINK-1080,44961,53.0442,0.0002495,15.6753364,364.2792115744778,367.6445169077342,1 44961U 20001AZ  26157.46986531  .00056023  00000+0  50731-3 0  9994,2 44961  53.0442 218.5603 0002495  31.1283 328.9880 15.67533640354490
STARLINK-1090,44968,53.1486,0.0004491,15.50385101,412.5497684752763,418.6519037996941,1 44968U 20001BG  26157.82883449  .00059732  00000+0  10336-2 0  9991,2 44968  53.1486 246.6166 0004491 341.0415  19.0427 15.50385101354146
STARLINK-1132,45044,53.1508,0.000413,15.55447642,398.0519790687931,403.6514237361507,1 45044U 20006A   26157.80753898  .00060888  00000+0  87761-3 0  9995,2 45044  53.1508 187.7952 0004130  18.4593 341.6567 15.55447642350742
STARLINK-1131,45047,53.1554,0.0005454,15.52165712,406.7016189799133,414.1065596001108,1 45047U 20006D   26157.49771734  .00060009  00000+0  97435-3 0  9996,2 45047  53.1554 222.0953 0005454 356.3028   3.7941 15.52165712350235
STARLINK-1134,45048,53.0248,0.0008282,15.58025514,387.7639049388272,398.9802325603032,1 45048U 20006E   26157.74083629  .00153050  00000+0  19698-2 0  9997,2 45048  53.0248 170.8413 0008282  54.0145 306.1633 15.58025514350958
STARLINK-1156,45054,53.1557,0.000512,15.34980868,457.4756960287996,464.4789490951034,1 45054U 20006L   26157.43290469  .00060902  00000+0  17656-2 0  9997,2 45054  53.1557 227.8441 0005120 350.1955   9.8947 15.34980868350142
STARLINK-1166,45060,53.0448,0.0005944,15.59371893,385.45110907280286,393.49644476440335,1 45060U 20006S   26157.93915311  .00097089  00000+0  11990-2 0  9990,2 45060  53.0448 202.9012 0005944   3.5229 356.5824 15.59371893350529
STARLINK-1169,45061,53.1537,0.0005448,15.3829779,447.4220644018624,454.8632475149943,1 45061U 20006T   26157.53526861  .00068718  00000+0  17874-2 0  9999,2 45061  53.1537 225.9773 0005448 324.5227  35.5415 15.38297790350184
STARLINK-1171,45062,53.0384,0.000347,15.74142791,344.73792869147655,349.40522344326837,1 45062U 20006U   26157.32604909  .00087883  00000+0  59909-3 0  9997,2 45062  53.0384 171.9470 0003470   0.9986 359.1038 15.74142791350904
STARLINK-1133,45064,53.1558,0.000521,15.34911559,457.6199155294462,464.7464871792572,1 45064U 20006W   26157.40401551  .00038507  00000+0  11262-2 0  9994,2 45064  53.1558 204.7541 0005210   1.0578 359.0435 15.34911559350471
STARLINK-1167,45071,53.1537,0.0003881,15.37221917,451.677061552693,456.98042146124953,1 45071U 20006AD  26156.43366862  .00039366  00000+0  10691-2 0  9998,2 45071  53.1537 208.4002 0003881 325.9271  34.1483 15.37221917350333
STARLINK-1168,45072,53.1569,0.0004798,15.3509041,457.37071437511077,463.9332162662322,1 45072U 20006AE  26157.83961283  .00033749  00000+0  98348-3 0  9997,2 45072  53.1569 202.9118 0004798   5.4170 354.6883 15.35090410350538
STARLINK-1172,45074,53.1529,0.0004019,15.38351171,448.2400464082566,453.7292944069304,1 45074U 20006AG  26157.82213933  .00037207  00000+0  97498-3 0  9998,2 45074  53.1529 201.2256 0004019 337.2177  22.8648 15.38351171350552
STARLINK-1153,45080,53.1575,0.0005209,15.3729928,450.5406030580898,457.6584270594776,1 45080U 20006AN  26157.39224776  .00046720  00000+0  12622-2 0  9999,2 45080  53.1575 203.8162 0005209 335.9403  24.1357 15.37299280350488
STARLINK-1151,45081,53.048,0.0001799,15.83643597,318.94174216360716,321.35178466168236,1 45081U 20006AP  26158.00004630  .01228639  00000+0  48470-2 0  9996,2 45081  53.0480 157.2433 0001799 114.3056 310.9865 15.83643597  6000
STARLINK-1185,45087,53.1596,0.0005955,15.45838721,424.8611714795852,432.9683701386193,1 45087U 20006AV  26157.79944863  .00043895  00000+0  89365-3 0  9995,2 45087  53.1596 182.0831 0005955  12.7094 347.4062 15.45838721350823
STARLINK-1183,45088,53.1557,0.0004952,15.34850593,457.9773894578384,464.7512315557642,1 45088U 20006AW  26157.81927475  .00036494  00000+0  10703-2 0  9995,2 45088  53.1557 187.6228 0004952   7.7387 352.3692 15.34850593350741
STARLINK-1152,45096,53.0336,0.0004497,15.48704002,417.4589382230033,423.57364699437676,1 45096U 20006BE  26157.68315889  .00068939  00000+0  12627-2 0  9995,2 45096  53.0336 143.3510 0004497  61.8328 298.3133 15.48704002351330
STARLINK-1184,45098,53.0511,0.0005036,15.14247668,519.7879759128546,526.7390665178236,1 45098U 20006BG  26157.81637567  .00016563  00000+0  90965-3 0  9990,2 45098  53.0511 201.6111 0005036  30.3529 329.7754 15.14247668350527
STARLINK-1193,45100,53.046,0.0004479,15.67718734,362.41057796343557,368.45146619761545,1 45100U 20006BJ  26157.17868399  .00065021  00000+0  58274-3 0  9992,2 45100  53.0460 157.8157 0004479 341.5979  18.4874 15.67718734351084
STARLINK-1143,45179,53.0332,0.0008477,15.89450887,298.15708000018276,309.48567223104874,1 45179U 20012B   26158.00004630  .00189798  24088-4  64545-3 0  9991,2 45179  53.0332 245.0127 0008477 349.7466 130.7912 15.89450887  5812
STARLINK-1202,45183,53.1569,0.000189,15.34623777,460.74541551269795,463.3310017415588,1 45183U 20012F   26157.24333382  .00060304  00000+0  17690-2 0  9992,2 45183  53.1569 347.0723 0001890 186.7694 173.3283 15.34623777348521
STARLINK-1216,45185,53.1587,0.0002127,15.34961566,459.5799647846243,462.48934840734,1 45185U 20012H   26157.80873394  .00049843  00000+0  14504-2 0  9994,2 45185  53.1587 344.2861 0002127 171.8562 188.2476 15.34961566348551
STARLINK-1225,45187,53.1587,0.0001276,15.34891589,460.36981925242526,462.1152289069696,1 45187U 20012K   26157.80744477  .00044765  00000+0  13076-2 0  9996,2 45187  53.1587 344.7523 0001276 181.6156 178.4843 15.34891589348595
STARLINK-1230,45189,53.1556,0.0001944,15.34817473,460.13308555255753,462.7923219173699,1 45189U 20012M   26157.81834893  .00031606  00000+0  93022-3 0  9991,2 45189  53.1556 344.7755 0001944 190.2433 169.8531 15.34817473345827
